"{\n    \"CCSDS_OMM_VERS\": \"2.0\",\n    \"COMMENT\": \"GENERATED VIA SPACE-TRACK.ORG API\",\n    \"CREATION_DATE\": \"2025-08-25T21:12:07\",\n    \"ORIGINATOR\": \"18 SPCS\",\n    \"OBJECT_NAME\": \"BEIDOU 7\",\n    \"OBJECT_ID\": \"2010-068A\",\n    \"CENTER_NAME\": \"EARTH\",\n    \"REF_FRAME\": \"TEME\",\n    \"TIME_SYSTEM\": \"UTC\",\n    \"MEAN_ELEMENT_THEORY\": \"SGP4\",\n    \"EPOCH\": \"2025-08-25T13:13:14.511360\",\n    \"MEAN_MOTION\": \"1.0026734887\",\n    \"ECCENTRICITY\": \"0.0048600678\",\n    \"INCLINATION\": \"48.079556\",\n    \"RA_OF_ASC_NODE\": \"275.49343\",\n    \"ARG_OF_PERICENTER\": \"216.00653\",\n    \"MEAN_ANOMALY\": \"148.52504\",\n    \"EPHEMERIS_TYPE\": \"0\",\n    \"CLASSIFICATION_TYPE\": \"U\",\n    \"NORAD_CAT_ID\": \"37256\",\n    \"ELEMENT_SET_NO\": \"999\",\n    \"REV_AT_EPOCH\": \"5383\",\n    \"BSTAR\": \"0\",\n    \"MEAN_MOTION_DOT\": \"-0.000001785381\",\n    \"MEAN_MOTION_DDOT\": \"0\",\n    \"TLE_LINE0\": \"0 BEIDOU 7\",\n    \"TLE_LINE1\": \"1 37256U 10068A   25237.55086240 -.00000179  00000-0  00000-0 0  9995\",\n    \"TLE_LINE2\": \"2 37256  48.0796 275.4934 0048601 216.0065 148.5250  1.00267349 53838\",\n    \"SEMIMAJOR_AXIS\": \"42165.976\",\n    \"PERIOD\": \"1436.160\",\n    \"APOAPSIS\": \"35992.770\",\n    \"PERIAPSIS\": \"35582.911\",\n    \"OBJECT_TYPE\": \"PAYLOAD\",\n    \"DECAYED\": \"0\"\n}"